OBJECT_NAME,OBJECT_ID,EPOCH,MEAN_MOTION,ECCENTRICITY,INCLINATION,RA_OF_ASC_NODE,ARG_OF_PERICENTER,MEAN_ANOMALY,EPHEMERIS_TYPE,CLASSIFICATION_TYPE,NORAD_CAT_ID,ELEMENT_SET_NO,REV_AT_EPOCH,BSTAR,MEAN_MOTION_DOT,MEAN_MOTION_DDOT
SL-16 R/B,1994-077B,2026-07-08T22:56:20.931648,14.15576146,.00040502,70.9830,97.3665,308.2299,51.8459,0,U,23405,999,63339,-.12160154E-3,-.286E-5,0
ARIANE 40+ R/B,1995-021B,2026-07-08T19:33:50.668128,14.39845274,.00077031,98.4402,259.5768,132.8530,338.5369,0,U,23561,999,63667,.63182309E-4,.155E-5,0
SL-16 R/B,1995-058B,2026-07-08T16:27:46.094688,14.15508416,.00146246,71.0218,286.2214,291.3381,68.6181,0,U,23705,999,58497,-.73235351E-4,-.191E-5,0
SL-16 R/B,1996-051B,2026-07-08T15:09:03.170880,14.12453937,.00172777,70.7652,279.2673,306.6922,53.2610,0,U,24298,999,53872,.10027856E-3,.136E-5,0
ORBVIEW 2 (SEASTAR),1997-037A,2026-07-08T16:42:44.405856,14.35564724,.00032442,98.8708,357.3136,73.8405,286.3136,0,U,24883,999,52583,.77100455E-4,.175E-5,0
SL-16 R/B,1998-043G,2026-07-08T21:39:58.840704,14.26072082,.00103696,98.8376,144.2501,28.8793,331.2959,0,U,25400,999,45626,.25363821E-4,.15E-6,0
SL-16 R/B,1998-045B,2026-07-08T15:18:02.061504,14.16207526,.0008501,71.0123,287.2191,215.6435,144.4122,0,U,25407,999,44422,-.60214888E-4,-.167E-5,0
ISS (ZARYA),1998-067A,2026-07-08T17:37:14.092032,15.48947664,.00066697,51.6304,193.4497,272.1743,87.8481,0,U,25544,999,57509,.10370434E-3,.5258E-4,0
CZ-4B R/B,1999-025C,2026-07-08T15:56:48.931872,14.18286971,.00370102,98.6473,230.9613,358.7051,110.4720,0,U,25732,999,40531,.31594116E-4,.22E-6,0
OKEAN-O,1999-039A,2026-07-08T18:32:29.687712,14.80492735,.00010212,97.9305,248.3215,76.4526,283.6800,0,U,25860,999,45230,.60437371E-4,.411E-5,0
SL-16 R/B,1999-039B,2026-07-08T18:35:00.028032,14.81866678,.00138536,97.9826,248.5747,220.2066,139.8123,0,U,25861,999,45479,.48800184E-4,.332E-5,0
DELTA 2 R/B,1999-041E,2026-07-08T16:37:51.987648,14.12066017,.05012359,51.7612,177.8781,345.5594,13.1446,0,U,25876,999,38012,.23115653E-3,.12E-4,0
HELIOS 1B,1999-064A,2026-07-08T16:43:07.786560,14.88064476,.00022072,98.1594,95.4575,61.6361,298.5077,0,U,25977,999,70325,.12461428E-3,.1087E-4,0
TERRA,1999-068A,2026-07-08T22:33:03.979296,14.61120385,.00031291,97.9444,238.6222,135.1795,327.3115,0,U,25994,999,41278,.58555468E-4,.244E-5,0
SL-16 R/B,2000-006B,2026-07-08T11:20:07.807776,14.15840041,.00169125,71.0004,203.8694,349.4789,10.5978,0,U,26070,999,36565,-.9126833E-4,-.228E-5,0
TITAN 4B R/B,2000-047B,2026-07-08T21:58:09.454944,15.10313046,.0045977,67.9873,59.4083,264.9880,94.6020,0,U,26474,999,41121,.11715488E-3,.183E-4,0
ENVISAT,2002-009A,2026-07-08T20:57:12.052224,14.39069831,.00013617,98.3844,140.7090,84.2537,337.7178,0,U,27386,999,27660,.2913747E-4,.47E-6,0
IDEFIX & ARIANE 42P R/B,2002-021B,2026-07-08T19:17:30.849792,14.31091894,.00114861,98.5942,127.0530,185.2254,174.8811,0,U,27422,999,26134,.65001391E-4,.128E-5,0
AQUA,2002-022A,2026-07-08T22:53:02.127840,14.62191028,.00007531,98.4290,159.6731,101.4132,325.9430,0,U,27424,999,28645,.11264961E-3,.518E-5,0
CZ-4B R/B,2002-024C,2026-07-08T18:04:54.670656,14.14567672,.00507918,98.8689,242.4323,40.1182,73.8783,0,U,27432,999,24635,.24386166E-4,.3E-7,0
MIDORI II (ADEOS-II),2002-056A,2026-07-08T21:48:11.967840,14.29360979,.00017313,98.7890,149.3543,48.4654,311.6675,0,U,27597,999,22761,.78853091E-4,.155E-5,0
H-2A R/B,2002-056E,2026-07-08T22:12:27.678240,14.33831655,.00705026,98.3324,145.8088,159.4596,268.9584,0,U,27601,999,23148,.67520945E-4,.152E-5,0
CZ-4B R/B,2003-049C,2026-07-08T23:03:10.770048,14.55113374,.004729,98.6905,189.6747,220.5516,139.2154,0,U,28059,999,20423,.50289921E-4,.168E-5,0
CZ-2C R/B,2004-012C,2026-07-08T19:16:42.700800,15.83823781,.00111271,97.7050,268.0571,210.2414,149.8213,0,U,28222,999,22331,.44522244E-3,.99446E-3,0
SL-16 R/B,2004-021B,2026-07-08T20:52:36.936480,14.14614688,.0006476,71.0022,338.1826,230.4599,129.5952,0,U,28353,999,13997,.14369025E-3,.229E-5,0
CZ-4B R/B,2004-035C,2026-07-08T15:19:58.697184,15.30931286,.00288897,97.3363,222.4732,257.1716,102.6297,0,U,28415,999,19840,.17074124E-3,.5088E-4,0
CZ-2C R/B,2004-046B,2026-07-08T15:32:10.260672,14.27031819,.01397565,98.1926,97.0851,156.6756,204.0851,0,U,28480,999,12575,.3959469E-4,.67E-6,0
ARIANE 5 R/B,2004-049H,2026-07-08T18:03:43.688736,14.85474250,.00829591,98.2737,2.8409,319.4310,40.0739,0,U,28499,999,16376,.49395982E-4,.387E-5,0
CZ-2D R/B,2005-024B,2026-07-08T14:59:09.665088,15.72109039,.00012609,97.3477,210.1597,219.5546,140.5626,0,U,28738,999,15870,.38743077E-3,.50849E-3,0
ALOS (DAICHI),2006-002A,2026-07-08T20:54:34.552800,14.70093988,.00007828,98.1334,145.3726,81.1093,279.0202,0,U,28931,999,9128,.1291939E-3,.727E-5,0
